<?xml version="1.0" encoding="UTF-8"?>
<kml xmlns="http://www.opengis.net/kml/2.2">
  <Document>
    <name>LG Logo</name>
    <ScreenOverlay>
      <name>LG Logo</name>
      <Icon><href>https://raw.githubusercontent.com/lucisays/imagen/main/LGMasterWebAppLogo.png</href></Icon>
      <overlayXY x="0" y="1" xunits="fraction" yunits="fraction"/>
      <screenXY x="0.02" y="0.95" xunits="fraction" yunits="fraction"/>
      <rotationXY x="0" y="0" xunits="fraction" yunits="fraction"/>
      <size x="554.0" y="500.0" xunits="pixels" yunits="pixels"/>
    </ScreenOverlay>
  </Document>
</kml>
